{
  "type": "FeatureCollection",
  "features": [
    {
      "type": "Feature",
      "properties": {
        "norad_id": 62876,
        "name": "QZS-6 (QZSS/PRN 200)",
        "group": "gnss",
        "lat": 0.03960313978309649,
        "lon": 172.303666591618,
        "alt_km": 35787.39226947359,
        "timestamp": "2025-12-18T23:35:49.302764+00:00",
        "meta_object_name": "QZS-6 (QZSS/PRN 200)",
        "meta_object_id": "2025-023A",
        "meta_epoch": "2025-12-18T13:43:31.703808",
        "meta_mean_motion": 1.0027308,
        "meta_eccentricity": 0.00014901,
        "meta_inclination": 0.0455,
        "meta_ra_of_asc_node": 67.0334,
        "meta_arg_of_pericenter": 210.4834,
        "meta_mean_anomaly": 106.334,
        "meta_ephemeris_type": 0,
        "meta_classification_type": "U",
        "meta_norad_cat_id": 62876,
        "meta_element_set_no": 999,
        "meta_rev_at_epoch": 314,
        "meta_bstar": 0,
        "meta_mean_motion_dot": -2.09e-06,
        "meta_mean_motion_ddot": 0,
        "tle_line1": "1 62876U 25023A   25352.57189472 -.00000209  00000+0  00000+0 0  9991",
        "tle_line2": "2 62876   0.0455  67.0334 0001490 210.4834 106.3340  1.00273080  3140"
      },
      "geometry": {
        "type": "Point",
        "coordinates": [
          172.303666591618,
          0.03960313978309649
        ]
      }
    },
    {
      "type": "Feature",
      "properties": {
        "norad_id": 63130,
        "name": "COSMOS 2584 (704K)",
        "group": "gnss",
        "lat": 26.058419729903182,
        "lon": 92.12198798817775,
        "alt_km": 19146.328025756517,
        "timestamp": "2025-12-18T23:35:49.302776+00:00",
        "meta_object_name": "COSMOS 2584 (704K)",
        "meta_object_id": "2025-042A",
        "meta_epoch": "2025-12-18T11:25:35.911776",
        "meta_mean_motion": 2.13103072,
        "meta_eccentricity": 0.00077091,
        "meta_inclination": 64.979,
        "meta_ra_of_asc_node": 78.9506,
        "meta_arg_of_pericenter": 218.5301,
        "meta_mean_anomaly": 141.4378,
        "meta_ephemeris_type": 0,
        "meta_classification_type": "U",
        "meta_norad_cat_id": 63130,
        "meta_element_set_no": 999,
        "meta_rev_at_epoch": 619,
        "meta_bstar": 0,
        "meta_mean_motion_dot": -3.8e-07,
        "meta_mean_motion_ddot": 0,
        "tle_line1": "1 63130U 25042A   25352.47611009 -.00000038  00000+0  00000+0 0  9991",
        "tle_line2": "2 63130  64.9790  78.9506 0007709 218.5301 141.4378  2.13103072  6191"
      },
      "geometry": {
        "type": "Point",
        "coordinates": [
          92.12198798817775,
          26.058419729903182
        ]
      }
    },
    {
      "type": "Feature",
      "properties": {
        "norad_id": 64202,
        "name": "GPS BIII-8  (PRN 21)",
        "group": "gnss",
        "lat": -54.32433156540269,
        "lon": -37.808177330084504,
        "alt_km": 20175.11920936656,
        "timestamp": "2025-12-18T23:35:49.302789+00:00",
        "meta_object_name": "GPS BIII-8  (PRN 21)",
        "meta_object_id": "2025-116A",
        "meta_epoch": "2025-12-18T15:16:52.654656",
        "meta_mean_motion": 2.00558053,
        "meta_eccentricity": 0.00059082,
        "meta_inclination": 55.1097,
        "meta_ra_of_asc_node": 38.4029,
        "meta_arg_of_pericenter": 309.1838,
        "meta_mean_anomaly": 78.7026,
        "meta_ephemeris_type": 0,
        "meta_classification_type": "U",
        "meta_norad_cat_id": 64202,
        "meta_element_set_no": 999,
        "meta_rev_at_epoch": 425,
        "meta_bstar": 0,
        "meta_mean_motion_dot": -7e-07,
        "meta_mean_motion_ddot": 0,
        "tle_line1": "1 64202U 25116A   25352.63672054 -.00000070  00000+0  00000+0 0  9995",
        "tle_line2": "2 64202  55.1097  38.4029 0005908 309.1838  78.7026  2.00558053  4252"
      },
      "geometry": {
        "type": "Point",
        "coordinates": [
          -37.808177330084504,
          -54.32433156540269
        ]
      }
    },
    {
      "type": "Feature",
      "properties": {
        "norad_id": 65590,
        "name": "COSMOS 2596 (708K)",
        "group": "gnss",
        "lat": 29.134161696447105,
        "lon": 125.98927645489086,
        "alt_km": 19160.255034919588,
        "timestamp": "2025-12-18T23:35:49.302801+00:00",
        "meta_object_name": "COSMOS 2596 (708K)",
        "meta_object_id": "2025-206B",
        "meta_epoch": "2025-12-18T11:34:10.893792",
        "meta_mean_motion": 2.13100518,
        "meta_eccentricity": 0.001404,
        "meta_inclination": 64.7412,
        "meta_ra_of_asc_node": 321.2751,
        "meta_arg_of_pericenter": 306.7014,
        "meta_mean_anomaly": 176.2676,
        "meta_ephemeris_type": 0,
        "meta_classification_type": "U",
        "meta_norad_cat_id": 65590,
        "meta_element_set_no": 999,
        "meta_rev_at_epoch": 206,
        "meta_bstar": 0,
        "meta_mean_motion_dot": -6.4e-07,
        "meta_mean_motion_ddot": 0,
        "tle_line1": "1 65590U 25206B   25352.48207053 -.00000064  00000+0  00000+0 0  9995",
        "tle_line2": "2 65590  64.7412 321.2751 0014040 306.7014 176.2676  2.13100518  2066"
      },
      "geometry": {
        "type": "Point",
        "coordinates": [
          125.98927645489086,
          29.134161696447105
        ]
      }
    },
    {
      "type": "Feature",
      "properties": {
        "norad_id": 67160,
        "name": "GALILEO A",
        "group": "gnss",
        "lat": 15.343753840300055,
        "lon": -84.18002746371819,
        "alt_km": 22937.173700141146,
        "timestamp": "2025-12-18T23:35:49.302812+00:00",
        "meta_object_name": "GALILEO A",
        "meta_object_id": "2025-302A",
        "meta_epoch": "2025-12-18T03:30:19.807776",
        "meta_mean_motion": 1.72901431,
        "meta_eccentricity": 0.00080329,
        "meta_inclination": 54.2385,
        "meta_ra_of_asc_node": 107.247,
        "meta_arg_of_pericenter": 237.4965,
        "meta_mean_anomaly": 122.3848,
        "meta_ephemeris_type": 0,
        "meta_classification_type": "U",
        "meta_norad_cat_id": 67160,
        "meta_element_set_no": 999,
        "meta_rev_at_epoch": 2,
        "meta_bstar": 0,
        "meta_mean_motion_dot": -7e-08,
        "meta_mean_motion_ddot": 0,
        "tle_line1": "1 67160U 25302A   25352.14606259 -.00000007  00000+0  00000+0 0  9998",
        "tle_line2": "2 67160  54.2385 107.2470 0008032 237.4965 122.3848  1.72901431    27"
      },
      "geometry": {
        "type": "Point",
        "coordinates": [
          -84.18002746371819,
          15.343753840300055
        ]
      }
    },
    {
      "type": "Feature",
      "properties": {
        "norad_id": 67161,
        "name": "GALILEO B",
        "group": "gnss",
        "lat": 15.000758109563192,
        "lon": -83.93753221496995,
        "alt_km": 22935.150008780834,
        "timestamp": "2025-12-18T23:35:49.302824+00:00",
        "meta_object_name": "GALILEO B",
        "meta_object_id": "2025-302B",
        "meta_epoch": "2025-12-18T03:29:55.932000",
        "meta_mean_motion": 1.72967481,
        "meta_eccentricity": 0.0004929,
        "meta_inclination": 54.2283,
        "meta_ra_of_asc_node": 107.2235,
        "meta_arg_of_pericenter": 250.9394,
        "meta_mean_anomaly": 108.9662,
        "meta_ephemeris_type": 0,
        "meta_classification_type": "U",
        "meta_norad_cat_id": 67161,
        "meta_element_set_no": 999,
        "meta_rev_at_epoch": 3,
        "meta_bstar": 0,
        "meta_mean_motion_dot": -7e-08,
        "meta_mean_motion_ddot": 0,
        "tle_line1": "1 67161U 25302B   25352.14578625 -.00000007  00000+0  00000+0 0  9994",
        "tle_line2": "2 67161  54.2283 107.2235 0004929 250.9394 108.9662  1.72967481    33"
      },
      "geometry": {
        "type": "Point",
        "coordinates": [
          -83.93753221496995,
          15.000758109563192
        ]
      }
    }
  ]
}